1 28654U 05018A   25060.53627539  .00000440  00000-0  25676-3 0  9999
2 28654  98.8487 141.1226 0014866  56.7021 303.5573 14.13529858 19534